0 FENGYUN 1C DEB
1 29846U 99025EQ  13281.82561091  .00000222  00000-0  12806-3 0  7928
2 29846 098.8932 257.1005 0087920 047.0361 021.3339 14.16924548348355
0 FENGYUN 1C DEB
1 29846U 99025EQ  13282.88294553  .00000240  00000-0  13655-3 0  7935
2 29846 098.8932 258.1578 0087876 044.0448 014.6988 14.16925824348504
0 FENGYUN 1C DEB
1 29846U 99025EQ  13285.98557178  .00000249  00000-0  14091-3 0  7950
2 29846 098.8935 261.2602 0087739 035.2565 000.9381 14.16927627348946
0 FENGYUN 1C DEB
1 29846U 99025EQ  13287.42070269  .00000246  00000-0  13950-3 0  7963
2 29846 098.8939 262.6951 0087662 031.1774 121.4402 14.16928839349146
0 FENGYUN 1C DEB
1 29846U 99025EQ  13288.54435248  .00000301  00000-0  16595-3 0  7970
2 29846 098.8942 263.8185 0087590 027.9868 093.1020 14.16929859349301
0 FENGYUN 1C DEB
1 29846U 99025EQ  13289.74508338  .00000309  00000-0  16980-3 0  7981
2 29846 098.8945 265.0191 0087541 024.5919 097.9409 14.16930855349470
0 FENGYUN 1C DEB
1 29846U 99025EQ  13291.50850748  .00000331  00000-0  18022-3 0  7998
2 29846 098.8949 266.7825 0087461 019.5772 093.0724 14.16931889349721
0 FENGYUN 1C DEB
1 29846U 99025EQ  13293.19396103  .00000361  00000-0  19477-3 0  8006
2 29846 098.8953 268.4680 0087369 014.7841 050.4854 14.16933237349961
0 FENGYUN 1C DEB
1 29846U 99025EQ  13294.47625878  .00000390  00000-0  20881-3 0  8016
2 29846 098.8954 269.7505 0087294 011.1391 111.4237 14.16934593350141
0 FENGYUN 1C DEB
1 29846U 99025EQ  13295.53537200  .00000383  00000-0  20560-3 0  8022
2 29846 098.8954 270.8098 0087237 008.1241 113.9185 14.16935624350299
